{"fetched_at":"2026-07-12T05:53:00.955Z","source":"https://celestrak.org/NORAD/elements/gp.php?NAME=JILIN&FORMAT=JSON","constellation":"jilin-1-early","records":[{"OBJECT_NAME":"JILIN-1","OBJECT_ID":"2015-057D","EPOCH":"2026-07-11T20:33:05.711904","CLASSIFICATION_TYPE":"U","MEAN_MOTION":14.7819829,"ECCENTRICITY":0.0016907,"INCLINATION":97.6517,"RA_OF_ASC_NODE":190.9995,"ARG_OF_PERICENTER":177.639,"MEAN_ANOMALY":182.4904,"EPHEMERIS_TYPE":0,"NORAD_CAT_ID":40961,"ELEMENT_SET_NO":999,"REV_AT_EPOCH":57925,"BSTAR":0.000066014,"MEAN_MOTION_DOT":0.00000431,"MEAN_MOTION_DDOT":0},{"OBJECT_NAME":"JILIN-1 03","OBJECT_ID":"2017-002B","EPOCH":"2026-07-11T19:36:41.705568","CLASSIFICATION_TYPE":"U","MEAN_MOTION":15.42174223,"ECCENTRICITY":0.0007974,"INCLINATION":97.1948,"RA_OF_ASC_NODE":199.5637,"ARG_OF_PERICENTER":88.2814,"MEAN_ANOMALY":271.9347,"EPHEMERIS_TYPE":0,"NORAD_CAT_ID":41914,"ELEMENT_SET_NO":999,"REV_AT_EPOCH":52565,"BSTAR":0.00020048,"MEAN_MOTION_DOT":0.0000852,"MEAN_MOTION_DDOT":0},{"OBJECT_NAME":"JILIN-1 04","OBJECT_ID":"2017-074A","EPOCH":"2026-07-11T20:42:58.098816","CLASSIFICATION_TYPE":"U","MEAN_MOTION":15.43072392,"ECCENTRICITY":0.000526,"INCLINATION":97.4872,"RA_OF_ASC_NODE":303.146,"ARG_OF_PERICENTER":109.114,"MEAN_ANOMALY":251.0677,"EPHEMERIS_TYPE":0,"NORAD_CAT_ID":43022,"ELEMENT_SET_NO":999,"REV_AT_EPOCH":47807,"BSTAR":0.00018311,"MEAN_MOTION_DOT":0.00008002,"MEAN_MOTION_DDOT":0},{"OBJECT_NAME":"JILIN-1 05","OBJECT_ID":"2017-074B","EPOCH":"2026-07-11T20:13:34.157280","CLASSIFICATION_TYPE":"U","MEAN_MOTION":15.34251263,"ECCENTRICITY":0.0006298,"INCLINATION":97.4877,"RA_OF_ASC_NODE":299.3379,"ARG_OF_PERICENTER":133.9069,"MEAN_ANOMALY":226.2695,"EPHEMERIS_TYPE":0,"NORAD_CAT_ID":43023,"ELEMENT_SET_NO":999,"REV_AT_EPOCH":47778,"BSTAR":0.00013679,"MEAN_MOTION_DOT":0.00004455,"MEAN_MOTION_DDOT":0},{"OBJECT_NAME":"JILIN-1 06","OBJECT_ID":"2017-074C","EPOCH":"2026-07-11T19:37:58.382112","CLASSIFICATION_TYPE":"U","MEAN_MOTION":15.33971676,"ECCENTRICITY":0.000787,"INCLINATION":97.4803,"RA_OF_ASC_NODE":296.2896,"ARG_OF_PERICENTER":144.2608,"MEAN_ANOMALY":215.9163,"EPHEMERIS_TYPE":0,"NORAD_CAT_ID":43024,"ELEMENT_SET_NO":999,"REV_AT_EPOCH":47761,"BSTAR":0.00010874,"MEAN_MOTION_DOT":0.00003494,"MEAN_MOTION_DDOT":0},{"OBJECT_NAME":"JILIN-1 07","OBJECT_ID":"2018-008E","EPOCH":"2026-07-11T20:46:58.068768","CLASSIFICATION_TYPE":"U","MEAN_MOTION":15.35128967,"ECCENTRICITY":0.0007087,"INCLINATION":97.1767,"RA_OF_ASC_NODE":212.1414,"ARG_OF_PERICENTER":342.1794,"MEAN_ANOMALY":17.92,"EPHEMERIS_TYPE":0,"NORAD_CAT_ID":43159,"ELEMENT_SET_NO":999,"REV_AT_EPOCH":46878,"BSTAR":0.0001652,"MEAN_MOTION_DOT":0.00005558,"MEAN_MOTION_DDOT":0},{"OBJECT_NAME":"JILIN-1 08","OBJECT_ID":"2018-008F","EPOCH":"2026-07-11T19:38:18.123648","CLASSIFICATION_TYPE":"U","MEAN_MOTION":15.33985893,"ECCENTRICITY":0.0005736,"INCLINATION":97.1803,"RA_OF_ASC_NODE":211.3838,"ARG_OF_PERICENTER":5.4642,"MEAN_ANOMALY":354.6663,"EPHEMERIS_TYPE":0,"NORAD_CAT_ID":43160,"ELEMENT_SET_NO":999,"REV_AT_EPOCH":46872,"BSTAR":0.0001188,"MEAN_MOTION_DOT":0.00003831,"MEAN_MOTION_DDOT":0},{"OBJECT_NAME":"JILIN-1 09","OBJECT_ID":"2019-005B","EPOCH":"2026-07-11T20:33:44.165952","CLASSIFICATION_TYPE":"U","MEAN_MOTION":15.20723672,"ECCENTRICITY":0.0002614,"INCLINATION":97.4745,"RA_OF_ASC_NODE":287.6121,"ARG_OF_PERICENTER":43.1156,"MEAN_ANOMALY":317.0284,"EPHEMERIS_TYPE":0,"NORAD_CAT_ID":43943,"ELEMENT_SET_NO":999,"REV_AT_EPOCH":41289,"BSTAR":0.00012696,"MEAN_MOTION_DOT":0.00002723,"MEAN_MOTION_DDOT":0},{"OBJECT_NAME":"JILIN-1 10","OBJECT_ID":"2019-005E","EPOCH":"2026-07-11T20:23:55.051008","CLASSIFICATION_TYPE":"U","MEAN_MOTION":15.25983684,"ECCENTRICITY":0.000825,"INCLINATION":97.4795,"RA_OF_ASC_NODE":291.6591,"ARG_OF_PERICENTER":181.0689,"MEAN_ANOMALY":179.0533,"EPHEMERIS_TYPE":0,"NORAD_CAT_ID":43946,"ELEMENT_SET_NO":999,"REV_AT_EPOCH":41307,"BSTAR":0.00013872,"MEAN_MOTION_DOT":0.00003493,"MEAN_MOTION_DDOT":0}]}
